UNKNOWN                 
1 87764U          26064.64505973  .00009033  00000+0  14728-2 0  9997
2 87764  65.6727 293.9902 0359621  33.3613   0.3117 14.36448501631026
UNKNOWN                 
1 87771U          26063.34847934  .00000113  00000+0  38497-3 0  9997
2 87771 100.7431 266.2863 0119597 177.2535 182.9260 13.19541087545857
UNKNOWN                 
1 87782U          26063.91573807  .00004088  00000+0  13487-1 0  9992
2 87782 102.3656 311.4493 0054543  39.1766 321.3260 13.00900288578676
UNKNOWN                 
1 87843U          26061.54583040  .00002064  00000+0  46761-2 0  9991
2 87843  99.6571 173.9844 0247304 178.1918 182.0149 13.16934207574669
UNKNOWN                 
1 87845U          26063.80595506  .00003256  00000+0  60290-2 0  9991
2 87845  98.8686  10.2514 0579631  64.6076 301.3868 12.89253931575786
UNKNOWN                 
1 87878U          26060.58067421  .00003848  00000+0  11929-2 0  9991
2 87878  99.1593 190.6549 0034360  36.2979 324.0529 14.41439820622654
UNKNOWN                 
1 87884U          26059.56944444  .00000607  00000+0  35614-3 0  9991
2 87884  98.7315 165.6870 0153707 208.8803 150.3794 14.06044062629301
UNKNOWN                 
1 87991U          26058.90253881  .00004024  00000+0  77235-2 0  9996
2 87991  28.6287 295.8565 0895898 205.1452 150.2727 12.35692323532544
UNKNOWN                 
1 89005U          26063.95795051  .00005150  00000+0  11565-2 0  9990
2 89005  97.8416 251.9802 0190754 138.2424 223.3508 14.46242697545974
UNKNOWN                 
1 89029U          26035.99064593  .00008279  00000+0  75403-3 0  9996
2 89029  98.0469 301.6350 0022937 142.0484 218.2357 14.95225167659189
UNKNOWN                 
1 89101U          26064.03509193  .00000277  00000+0  95812-3 0  9990
2 89101 100.4723   3.1521 0146687 284.9365  73.5540 13.04038662565574
UNKNOWN                 
1 89132U          26063.69144983  .00004978  00000+0  64725-2 0  9997
2 89132  63.4369 315.1227 2928485 319.6759  21.9524  8.87935431332385
UNKNOWN                 
1 89146U          26063.75571535  .00004725  00000+0  85759-3 0  9997
2 89146  98.2534 357.5476 0092062 157.5806 202.9460 14.63955426640872
UNKNOWN                 
1 89161U          26064.02513664  .00448406  00000+0  34005-2 0  9999
2 89161  97.6403  90.0105 0022135 124.6168 235.7185 15.70753029561341
UNKNOWN                 
1 89172U          26063.92476401  .00007230  00000+0  11370-2 0  9992
2 89172  82.0644 144.6703 0282259  28.1067 333.5040 14.49090755613787
UNKNOWN                 
1 89183U          26062.72246828  .00000672  00000+0  62848-3 0  9999
2 89183  99.2182 336.9565 0130053 301.6439  57.2081 13.81697394618152
UNKNOWN                 
1 89184U          26064.44116937  .00032120  00000+0  36595-2 0  9990
2 89184  98.3851 298.3021 0007734 225.4449 134.6134 14.86056219504432
