[{"OBJECT_NAME":"UNKNOWN","OBJECT_ID":"","EPOCH":"2026-03-05T15:28:53.160672","MEAN_MOTION":14.36448501,"ECCENTRICITY":0.0359621,"INCLINATION":65.6727,"RA_OF_ASC_NODE":293.9902,"ARG_OF_PERICENTER":33.3613,"MEAN_ANOMALY":0.3117,"EPHEMERIS_TYPE":0,"CLASSIFICATION_TYPE":"U","NORAD_CAT_ID":87764,"ELEMENT_SET_NO":999,"REV_AT_EPOCH":63102,"BSTAR":0.0014728,"MEAN_MOTION_DOT":9.033e-5,"MEAN_MOTION_DDOT":0},{"OBJECT_NAME":"UNKNOWN","OBJECT_ID":"","EPOCH":"2026-03-04T08:21:48.614976","MEAN_MOTION":13.19541087,"ECCENTRICITY":0.0119597,"INCLINATION":100.7431,"RA_OF_ASC_NODE":266.2863,"ARG_OF_PERICENTER":177.2535,"MEAN_ANOMALY":182.926,"EPHEMERIS_TYPE":0,"CLASSIFICATION_TYPE":"U","NORAD_CAT_ID":87771,"ELEMENT_SET_NO":999,"REV_AT_EPOCH":54585,"BSTAR":0.00038497,"MEAN_MOTION_DOT":1.13e-6,"MEAN_MOTION_DDOT":0},{"OBJECT_NAME":"UNKNOWN","OBJECT_ID":"","EPOCH":"2026-03-04T21:58:39.769248","MEAN_MOTION":13.00900288,"ECCENTRICITY":0.0054543,"INCLINATION":102.3656,"RA_OF_ASC_NODE":311.4493,"ARG_OF_PERICENTER":39.1766,"MEAN_ANOMALY":321.326,"EPHEMERIS_TYPE":0,"CLASSIFICATION_TYPE":"U","NORAD_CAT_ID":87782,"ELEMENT_SET_NO":999,"REV_AT_EPOCH":57867,"BSTAR":0.013487,"MEAN_MOTION_DOT":4.088e-5,"MEAN_MOTION_DDOT":0},{"OBJECT_NAME":"UNKNOWN","OBJECT_ID":"","EPOCH":"2026-03-02T13:05:59.746560","MEAN_MOTION":13.16934207,"ECCENTRICITY":0.0247304,"INCLINATION":99.6571,"RA_OF_ASC_NODE":173.9844,"ARG_OF_PERICENTER":178.1918,"MEAN_ANOMALY":182.0149,"EPHEMERIS_TYPE":0,"CLASSIFICATION_TYPE":"U","NORAD_CAT_ID":87843,"ELEMENT_SET_NO":999,"REV_AT_EPOCH":57466,"BSTAR":0.0046761,"MEAN_MOTION_DOT":2.064e-5,"MEAN_MOTION_DDOT":0},{"OBJECT_NAME":"UNKNOWN","OBJECT_ID":"","EPOCH":"2026-03-04T19:20:34.517184","MEAN_MOTION":12.89253931,"ECCENTRICITY":0.0579631,"INCLINATION":98.8686,"RA_OF_ASC_NODE":10.2514,"ARG_OF_PERICENTER":64.6076,"MEAN_ANOMALY":301.3868,"EPHEMERIS_TYPE":0,"CLASSIFICATION_TYPE":"U","NORAD_CAT_ID":87845,"ELEMENT_SET_NO":999,"REV_AT_EPOCH":57578,"BSTAR":0.006029,"MEAN_MOTION_DOT":3.256e-5,"MEAN_MOTION_DDOT":0},{"OBJECT_NAME":"UNKNOWN","OBJECT_ID":"","EPOCH":"2026-03-01T13:56:10.251744","MEAN_MOTION":14.4143982,"ECCENTRICITY":0.003436,"INCLINATION":99.1593,"RA_OF_ASC_NODE":190.6549,"ARG_OF_PERICENTER":36.2979,"MEAN_ANOMALY":324.0529,"EPHEMERIS_TYPE":0,"CLASSIFICATION_TYPE":"U","NORAD_CAT_ID":87878,"ELEMENT_SET_NO":999,"REV_AT_EPOCH":62265,"BSTAR":0.0011929,"MEAN_MOTION_DOT":3.848e-5,"MEAN_MOTION_DDOT":0},{"OBJECT_NAME":"UNKNOWN","OBJECT_ID":"","EPOCH":"2026-02-28T13:39:59.999616","MEAN_MOTION":14.06044062,"ECCENTRICITY":0.0153707,"INCLINATION":98.7315,"RA_OF_ASC_NODE":165.687,"ARG_OF_PERICENTER":208.8803,"MEAN_ANOMALY":150.3794,"EPHEMERIS_TYPE":0,"CLASSIFICATION_TYPE":"U","NORAD_CAT_ID":87884,"ELEMENT_SET_NO":999,"REV_AT_EPOCH":62930,"BSTAR":0.00035614,"MEAN_MOTION_DOT":6.07e-6,"MEAN_MOTION_DDOT":0},{"OBJECT_NAME":"UNKNOWN","OBJECT_ID":"","EPOCH":"2026-02-27T21:39:39.353184","MEAN_MOTION":12.35692323,"ECCENTRICITY":0.0895898,"INCLINATION":28.6287,"RA_OF_ASC_NODE":295.8565,"ARG_OF_PERICENTER":205.1452,"MEAN_ANOMALY":150.2727,"EPHEMERIS_TYPE":0,"CLASSIFICATION_TYPE":"U","NORAD_CAT_ID":87991,"ELEMENT_SET_NO":999,"REV_AT_EPOCH":53254,"BSTAR":0.0077235,"MEAN_MOTION_DOT":4.024e-5,"MEAN_MOTION_DDOT":0},{"OBJECT_NAME":"UNKNOWN","OBJECT_ID":"","EPOCH":"2026-03-04T22:59:26.924064","MEAN_MOTION":14.46242697,"ECCENTRICITY":0.0190754,"INCLINATION":97.8416,"RA_OF_ASC_NODE":251.9802,"ARG_OF_PERICENTER":138.2424,"MEAN_ANOMALY":223.3508,"EPHEMERIS_TYPE":0,"CLASSIFICATION_TYPE":"U","NORAD_CAT_ID":89005,"ELEMENT_SET_NO":999,"REV_AT_EPOCH":54597,"BSTAR":0.0011565,"MEAN_MOTION_DOT":5.15e-5,"MEAN_MOTION_DDOT":0},{"OBJECT_NAME":"UNKNOWN","OBJECT_ID":"","EPOCH":"2026-02-04T23:46:31.808352","MEAN_MOTION":14.95225167,"ECCENTRICITY":0.0022937,"INCLINATION":98.0469,"RA_OF_ASC_NODE":301.635,"ARG_OF_PERICENTER":142.0484,"MEAN_ANOMALY":218.2357,"EPHEMERIS_TYPE":0,"CLASSIFICATION_TYPE":"U","NORAD_CAT_ID":89029,"ELEMENT_SET_NO":999,"REV_AT_EPOCH":65918,"BSTAR":0.00075403,"MEAN_MOTION_DOT":8.279e-5,"MEAN_MOTION_DDOT":0},{"OBJECT_NAME":"UNKNOWN","OBJECT_ID":"","EPOCH":"2026-03-05T00:50:31.942752","MEAN_MOTION":13.04038662,"ECCENTRICITY":0.0146687,"INCLINATION":100.4723,"RA_OF_ASC_NODE":3.1521,"ARG_OF_PERICENTER":284.9365,"MEAN_ANOMALY":73.554,"EPHEMERIS_TYPE":0,"CLASSIFICATION_TYPE":"U","NORAD_CAT_ID":89101,"ELEMENT_SET_NO":999,"REV_AT_EPOCH":56557,"BSTAR":0.00095812,"MEAN_MOTION_DOT":2.77e-6,"MEAN_MOTION_DDOT":0},{"OBJECT_NAME":"UNKNOWN","OBJECT_ID":"","EPOCH":"2026-03-04T16:35:41.265312","MEAN_MOTION":8.87935431,"ECCENTRICITY":0.2928485,"INCLINATION":63.4369,"RA_OF_ASC_NODE":315.1227,"ARG_OF_PERICENTER":319.6759,"MEAN_ANOMALY":21.9524,"EPHEMERIS_TYPE":0,"CLASSIFICATION_TYPE":"U","NORAD_CAT_ID":89132,"ELEMENT_SET_NO":999,"REV_AT_EPOCH":33238,"BSTAR":0.0064725,"MEAN_MOTION_DOT":4.978e-5,"MEAN_MOTION_DDOT":0},{"OBJECT_NAME":"UNKNOWN","OBJECT_ID":"","EPOCH":"2026-03-04T18:08:13.806240","MEAN_MOTION":14.63955426,"ECCENTRICITY":0.0092062,"INCLINATION":98.2534,"RA_OF_ASC_NODE":357.5476,"ARG_OF_PERICENTER":157.5806,"MEAN_ANOMALY":202.946,"EPHEMERIS_TYPE":0,"CLASSIFICATION_TYPE":"U","NORAD_CAT_ID":89146,"ELEMENT_SET_NO":999,"REV_AT_EPOCH":64087,"BSTAR":0.00085759,"MEAN_MOTION_DOT":4.725e-5,"MEAN_MOTION_DDOT":0},{"OBJECT_NAME":"UNKNOWN","OBJECT_ID":"","EPOCH":"2026-03-05T00:36:11.805696","MEAN_MOTION":15.70753029,"ECCENTRICITY":0.0022135,"INCLINATION":97.6403,"RA_OF_ASC_NODE":90.0105,"ARG_OF_PERICENTER":124.6168,"MEAN_ANOMALY":235.7185,"EPHEMERIS_TYPE":0,"CLASSIFICATION_TYPE":"U","NORAD_CAT_ID":89161,"ELEMENT_SET_NO":999,"REV_AT_EPOCH":56134,"BSTAR":0.0034005,"MEAN_MOTION_DOT":0.00448406,"MEAN_MOTION_DDOT":0},{"OBJECT_NAME":"UNKNOWN","OBJECT_ID":"","EPOCH":"2026-03-04T22:11:39.610464","MEAN_MOTION":14.49090755,"ECCENTRICITY":0.0282259,"INCLINATION":82.0644,"RA_OF_ASC_NODE":144.6703,"ARG_OF_PERICENTER":28.1067,"MEAN_ANOMALY":333.504,"EPHEMERIS_TYPE":0,"CLASSIFICATION_TYPE":"U","NORAD_CAT_ID":89172,"ELEMENT_SET_NO":999,"REV_AT_EPOCH":61378,"BSTAR":0.001137,"MEAN_MOTION_DOT":7.23e-5,"MEAN_MOTION_DDOT":0},{"OBJECT_NAME":"UNKNOWN","OBJECT_ID":"","EPOCH":"2026-03-03T17:20:21.259392","MEAN_MOTION":13.81697394,"ECCENTRICITY":0.0130053,"INCLINATION":99.2182,"RA_OF_ASC_NODE":336.9565,"ARG_OF_PERICENTER":301.6439,"MEAN_ANOMALY":57.2081,"EPHEMERIS_TYPE":0,"CLASSIFICATION_TYPE":"U","NORAD_CAT_ID":89183,"ELEMENT_SET_NO":999,"REV_AT_EPOCH":61815,"BSTAR":0.00062848,"MEAN_MOTION_DOT":6.72e-6,"MEAN_MOTION_DDOT":0},{"OBJECT_NAME":"UNKNOWN","OBJECT_ID":"","EPOCH":"2026-03-05T10:35:17.033568","MEAN_MOTION":14.86056219,"ECCENTRICITY":0.0007734,"INCLINATION":98.3851,"RA_OF_ASC_NODE":298.3021,"ARG_OF_PERICENTER":225.4449,"MEAN_ANOMALY":134.6134,"EPHEMERIS_TYPE":0,"CLASSIFICATION_TYPE":"U","NORAD_CAT_ID":89184,"ELEMENT_SET_NO":999,"REV_AT_EPOCH":50443,"BSTAR":0.0036595,"MEAN_MOTION_DOT":0.0003212,"MEAN_MOTION_DDOT":0}]
